[
    {
        "Altitude(m)": 622205.8851729147,
        "Argument of Periapsis(deg)": 0.0,
        "Eccentricity": 0.0,
        "Inclination(deg)": 60.0,
        "Latitude(deg)": -52.16248421782475,
        "Longitude(deg)": -22.299470878041383,
        "Mean Anomaly(deg)": -114.5455,
        "RAAN(deg)": 210.0,
        "Satellite Name": "Test1 939",
        "Satellite Number": 939,
        "Semi-Major Axis(m)": 6980739.136638005,
        "Time(s)": 0
    },
    {
        "Altitude(m)": 622344.7911377989,
        "Argument of Periapsis(deg)": 0.00010418945913296404,
        "Eccentricity": 0.0,
        "Inclination(deg)": 60.0,
        "Latitude(deg)": -52.520062371440524,
        "Longitude(deg)": -21.518255912435972,
        "Mean Anomaly(deg)": -113.92539385453817,
        "RAAN(deg)": 209.99957995086027,
        "Satellite Name": "Test1 939",
        "Satellite Number": 939,
        "Semi-Major Axis(m)": 6980739.136638005,
        "Time(s)": 10
    }
]